0 IRIDIUM 33 DEB
1 35844U 97051SU  13283.81737010  .00006073  00000-0  15477-2 0  2759
2 35844 086.3273 108.3518 0024517 090.7576 269.7434 14.50297341222180
0 IRIDIUM 33 DEB
1 35844U 97051SU  13285.81820646  .00006935  00000-0  17638-2 0  2768
2 35844 086.3279 107.4784 0028532 088.8225 271.8134 14.50335950222473
0 IRIDIUM 33 DEB
1 35844U 97051SU  13287.19803627  .00006413  00000-0  16305-2 0  2773
2 35844 086.3279 106.8751 0028529 084.2072 276.2163 14.50348439222675
0 IRIDIUM 33 DEB
1 35844U 97051SU  13289.19882371  .00009509  00000-0  24155-2 0  2791
2 35844 086.3249 105.9998 0029021 074.0218 286.7516 14.50413383222963
0 IRIDIUM 33 DEB
1 35844U 97051SU  13290.78551132  .00009532  00000-0  24285-2 0  2785
2 35844 086.3203 105.3045 0028735 078.9894 281.5028 14.50445247210663
0 IRIDIUM 33 DEB
1 35844U 97051SU  13291.75134704  .00009185  00000-0  23308-2 0  2807
2 35844 086.3249 104.8828 0029013 065.4809 294.9645 14.50460305223336
0 IRIDIUM 33 DEB
1 35844U 97051SU  13295.20065379  .00010306  00000-0  26101-2 0  2814
2 35844 086.3236 103.3715 0030080 053.6609 306.9066 14.50539972223837
